{
  "norad_id": 57263,
  "name": "STARLINK-5509",
  "history": [
    {
      "epoch": "2026-03-28T19:43:18.173568",
      "apogee_km": 486.453954091161,
      "perigee_km": 484.66856889938026,
      "latitude_deg": 9.704694671134563,
      "longitude_deg": -14.813140479847789,
      "semi_major_axis_km": 6863.69826149527,
      "eccentricity": 0.00013006,
      "inclination_deg": 43.0012,
      "raan_deg": 282.4829,
      "arg_perigee_deg": 272.4801,
      "mean_anomaly_deg": 87.5901,
      "mean_motion_rev_day": 15.26741418
    }
  ]
}